#aV2021  3 27  0  0  0.00000000     288 DD+AD WGS84 FIT  NGA
## 2150 518400.00000000   300.00000000 59300 0.0000000000000
+   32     1  2  3  4  5  6  7  8  9 10 11 12 13 14 15 16 17
+         18 19 20 21 22 23 24 25 26 27 28 29 30 31 32  0  0
+          0  0  0  0  0  0  0  0  0  0  0  0  0  0  0  0  0
+          0  0  0  0  0  0  0  0  0  0  0  0  0  0  0  0  0
+          0  0  0  0  0  0  0  0  0  0  0  0  0  0  0  0  0
++         2  2  2  2  2  2  2  2  2  2  2  2  2  2  2  2  2
++         2  2  2  2  2  2  2  2  2  2  2  2  2  2  2  0  0
++         0  0  0  0  0  0  0  0  0  0  0  0  0  0  0  0  0
++         0  0  0  0  0  0  0  0  0  0  0  0  0  0  0  0  0
++         0  0  0  0  0  0  0  0  0  0  0  0  0  0  0  0  0
%c cc cc ccc ccc cccc cccc cccc cccc ccccc ccccc ccccc ccccc
%c cc cc ccc ccc cccc cccc cccc cccc ccccc ccccc ccccc ccccc
%f  0.0000000  0.000000000  0.00000000000  0.000000000000000
%f  0.0000000  0.000000000  0.00000000000  0.000000000000000
%i    0    0    0    0      0      0      0      0         0
%i    0    0    0    0      0      0      0      0         0
/*      NGA, ST. LOUIS,MO.                                  
/*   EPHEMERIS COMPUTED FROM 2 DAYS OF DATA                 
/*   EPOCHA v5 SMOOTHER                                     
/*   G2139 IERS2010 SATAF SATAPC                            
*  2021  3 27  0 40  0.00000000
P  1  22351.954200  14666.448601  -1204.607648    731.748629                    
V  1  -1966.418353    891.392082 -31976.039469     -0.092217                    
P  2  -4711.223727 -17813.799946  19773.278295   -589.953560                    
V  2  21669.122128   9702.234733  14429.053498     -0.036008                    
P  3  12794.283043  13447.033594  18959.784419   -119.340879                    
V  3  -1690.950171  24157.419779 -15817.919643     -0.108252                    
P  4  17690.704876   5843.916820  18957.633715   -188.498379                    
V  4 -20793.776411  12138.735749  15613.563235     -0.021500                    
P  5  -4741.838260 -25353.440321  -6072.745130    -37.337526                    
V  5   2873.001125  -7614.924883  30480.073904     -0.010726                    
P  6   8627.068576 -12011.186766  22127.978990      3.094574                    
V  6  23838.014334  14446.319089  -1399.912910      0.022839                    
P  7  23541.437954   4839.915011 -11486.160494    102.821327                    
V  7  11514.612921   9823.431211  26453.967367      0.120816                    
P  8  10650.783415  11086.751519 -21687.015326    -15.236489                    
V  8 -23702.867286  13902.817904  -4236.600510     -0.014482                    
P  9  23543.406168  -4088.789683  11558.216778   -334.278031                    
V  9 -11517.336673   9603.926195  26700.537700     -0.029410                    
P 10 -11760.831908  16699.305756 -16717.364828    -89.311785                    
V 10  -1517.972161 -21560.574853 -20587.210590     -0.078654                    
P 11  21610.608385  10205.611464 -11646.293403     12.335372                    
V 11 -14552.627714   2900.479761 -25810.782112      0.106445                    
P 12 -10093.599293 -17472.070129  17098.571602    -19.526127                    
V 12   3454.064951 -21891.637439 -19887.596526     -0.052140                    
P 13    -61.855065 -15819.233126 -21449.888006    112.541591                    
V 13  25270.568696  -9296.639600   6950.558707      0.044730                    
P 14  13123.507840 -15386.925037 -17221.580213     99.218787                    
V 14    400.840453  21930.568280 -19318.079503     -0.011635                    
P 15 -12555.052606 -10567.696513 -21279.026405   -160.401444                    
V 15  21178.739875 -15569.485170  -4487.884552      0.025969                    
P 16   -202.882700  26057.895729  -3854.746344   -300.153337                    
V 16  -3215.627730   4327.684076  31852.626127     -0.058465                    
P 17  21877.207388 -14282.768440   5193.792323    416.303174                    
V 17   6311.229984   -790.241360 -31342.199351      0.063118                    
P 18 -21911.359380  -1637.156181 -14969.670503    351.228439                    
V 18 -15034.023491 -11703.773861  23235.480784      0.005093                    
P 19  17138.061504 -16018.865309  12073.131315    -21.075542                    
V 19  15300.969395  -4344.465650 -26951.669736      0.050060                    
P 20 -15910.531515  -1383.694231 -21245.913502    523.799889                    
V 20  -3069.561385 -26855.099615   3765.611922     -0.003934                    
P 21  19590.418580  16132.454277  -7862.117251    106.275778                    
V 21 -10831.046840  -2632.983928 -29217.243084      0.029413                    
P 22  10853.787582  21061.201798  12379.151093   -651.794032                    
V 22  -1590.096566  15580.642969 -25339.947802      0.083448                    
P 23 -14841.433354   5271.471338 -21400.515074    116.297472                    
V 23   -758.388247 -27121.530032  -6201.379294     -0.013860                    
P 24 -20406.106673 -16045.639689  -6772.962183      0.559986                    
V 24   8717.937904   1014.858398 -29355.138134     -0.004934                    
P 25 -14959.619525  -2988.590651  21497.299017    106.660664                    
V 25    650.693248 -27894.824223  -3114.511818      0.073852                    
P 26  -4486.226723  25065.040598   6999.823294     63.664404                    
V 26  -3667.217416  -8965.250971  29780.495739      0.052658                    
P 27  -2260.527792  16976.506753 -20362.807100   -101.457381                    
V 27 -22852.875463  11464.993510  12556.399513     -0.070411                    
P 28  12259.607998 -17831.409745 -14971.061146    596.149351                    
V 28   -428.202410  19984.716599 -23112.013071     -0.057325                    
P 29 -23939.664837   2932.282474  11125.695265   -319.077260                    
V 29  12100.934503  -7535.859368  27871.174418     -0.068058                    
P 30  16584.505354  -6575.563349 -19691.850070   -404.179319                    
V 30  20492.923416  14609.479301  12120.232374     -0.054201                    
P 31  -6586.727484  13854.248892  21576.626565   -107.964936                    
V 31 -23545.776066 -14476.904389   2555.637986     -0.022590                    
P 32 -20112.000927  16165.969926   6006.653456     21.747228                    
V 32  -8004.146093   1137.775635 -30555.131876      0.004043                    
EOF
